{
    "links": {
        "self": "http://www.neowsapp.com/rest/v1/neo/3655737?api_key=iIulBulltgU6a56xZRHN4H3l9WmuAYTsLGpBGhQ2"
    },
    "id": "3655737",
    "neo_reference_id": "3655737",
    "name": "(2013 YX102)",
    "designation": "2013 YX102",
    "nasa_jpl_url": "http://ssd.jpl.nasa.gov/sbdb.cgi?sstr=3655737",
    "absolute_magnitude_h": 25.4,
    "estimated_diameter": {
        "kilometers": {
            "estimated_diameter_min": 0.022108281,
            "estimated_diameter_max": 0.0494356193
        },
        "meters": {
            "estimated_diameter_min": 22.1082810359,
            "estimated_diameter_max": 49.435619262
        },
        "miles": {
            "estimated_diameter_min": 0.0137374447,
            "estimated_diameter_max": 0.0307178602
        },
        "feet": {
            "estimated_diameter_min": 72.5337327539,
            "estimated_diameter_max": 162.1903570994
        }
    },
    "is_potentially_hazardous_asteroid": false,
    "close_approach_data": [
        {
            "close_approach_date": "2013-12-19",
            "close_approach_date_full": "2013-Dec-19 22:56",
            "epoch_date_close_approach": 1387493760000,
            "relative_velocity": {
                "kilometers_per_second": "12.0424651459",
                "kilometers_per_hour": "43352.8745251594",
                "miles_per_hour": "26937.7902848136"
            },
            "miss_distance": {
                "astronomical": "0.0293295321",
                "lunar": "11.4091879869",
                "kilometers": "4387635.530256627",
                "miles": "2726350.2959583726"
            },
            "orbiting_body": "Earth"
        },
        {
            "close_approach_date": "2100-07-01",
            "close_approach_date_full": "2100-Jul-01 03:07",
            "epoch_date_close_approach": 4118094420000,
            "relative_velocity": {
                "kilometers_per_second": "25.579258067",
                "kilometers_per_hour": "92085.3290412612",
                "miles_per_hour": "57218.2423701103"
            },
            "miss_distance": {
                "astronomical": "0.4637314317",
                "lunar": "180.3915269313",
                "kilometers": "69373234.434370479",
                "miles": "43106529.0012074502"
            },
            "orbiting_body": "Earth"
        }
    ],
    "orbital_data": {
        "orbit_id": "7",
        "orbit_determination_date": "2019-07-19 05:25:46",
        "first_observation_date": "2013-12-31",
        "last_observation_date": "2014-01-04",
        "data_arc_in_days": 4,
        "observations_used": 20,
        "orbit_uncertainty": "8",
        "minimum_orbit_intersection": ".0127694",
        "jupiter_tisserand_invariant": "4.661",
        "epoch_osculation": "2456660.5",
        "eccentricity": ".4332551164494124",
        "semi_major_axis": "1.390747088127641",
        "inclination": "9.404072269819357",
        "ascending_node_longitude": "94.0958825889165",
        "orbital_period": "599.0604740600454",
        "perihelion_distance": ".7881987965092189",
        "perihelion_argument": "285.0069390847418",
        "aphelion_distance": "1.993295379746064",
        "perihelion_time": "2456597.485653088188",
        "mean_anomaly": "37.86790461154432",
        "mean_motion": ".6009409994289094",
        "equinox": "J2000",
        "orbit_class": {
            "orbit_class_type": "APO",
            "orbit_class_description": "Near-Earth asteroid orbits which cross the Earth’s orbit similar to that of 1862 Apollo",
            "orbit_class_range": "a (semi-major axis) > 1.0 AU; q (perihelion) < 1.017 AU"
        }
    },
    "is_sentry_object": false
}